NORAD_CAT_ID,OBJECT_NAME,OBJECT_TYPE,EPOCH,MEAN_MOTION,ECCENTRICITY,INCLINATION,RA_OF_ASC_NODE,ARG_OF_PERICENTER,MEAN_ANOMALY,BSTAR,MEAN_MOTION_DOT,MEAN_MOTION_DDOT,TLE_LINE0,TLE_LINE1,TLE_LINE2,SEMIMAJOR_AXIS,PERIOD,APOGEE,PERIGEE,DECAYED
53530.0,STARLINK-4482,PAYLOAD,2022-12-15 02:27:56,15.08835115,0.0002255,53.2169,333.9784,32.4191,327.6939,-1.667e-05,-5.54e-06,0.0,0 STARLINK-4482,1 53530U 22101D   22349.10273754 -.00000554  00000-0 -16670-4 0  9991,2 53530  53.2169 333.9784 0002255  32.4191 327.6939 15.08835115 17931,6917.895,95.438,541.32,538.2,0.0
53530.0,STARLINK-4482,PAYLOAD,2022-12-15 12:00:14,15.08846893,0.0002314,53.2168,332.1942,33.7605,326.3534,0.00011234,1.5e-05,0.0,0 STARLINK-4482,1 53530U 22101D   22349.50017221  .00001500  00000-0  11234-3 0  9990,2 53530  53.2168 332.1942 0002314  33.7605 326.3534 15.08846893 17995,6917.859,95.437,541.325,538.124,0.0
53530.0,STARLINK-4482,PAYLOAD,2022-12-15 19:57:10,15.08846747,0.0002345,53.2168,330.7076,34.7905,325.3241,0.00018846,2.713e-05,0.0,0 STARLINK-4482,1 53530U 22101D   22349.83137220  .00002713  00000-0  18846-3 0  9991,2 53530  53.2168 330.7076 0002345  34.7905 325.3241 15.08846747 18044,6917.86,95.437,541.347,538.1030000000002,0.0
53530.0,STARLINK-4482,PAYLOAD,2022-12-16 08:40:16,15.088382500000002,0.0002365,53.2168,328.3291,34.9504,325.1643,7.6371e-05,9.27e-06,0.0,0 STARLINK-4482,1 53530U 22101D   22350.36129669  .00000927  00000-0  76371-4 0  9992,2 53530  53.2168 328.3291 0002365  34.9504 325.1643 15.08838250 18128,6917.886,95.438,541.387,538.115,0.0
53530.0,STARLINK-4482,PAYLOAD,2022-12-16 13:26:25,15.08842644,0.000238,53.2168,327.4371,33.1478,326.9663,0.00013585,1.875e-05,0.0,0 STARLINK-4482,1 53530U 22101D   22350.56001469  .00001875  00000-0  13585-3 0  9991,2 53530  53.2168 327.4371 0002380  33.1478 326.9663 15.08842644 18151,6917.871999999999,95.437,541.384,538.091,0.0
53530.0,STARLINK-4482,PAYLOAD,2022-12-16 19:47:58,15.08829018,0.0002367,53.2169,326.248,34.9581,325.1566,6.3688e-05,7.25e-06,0.0,0 STARLINK-4482,1 53530U 22101D   22350.82498144  .00000725  00000-0  63688-4 0  9993,2 53530  53.2169 326.2480 0002367  34.9581 325.1566 15.08829018 18196,6917.9140000000025,95.438,541.4159999999998,538.141,0.0
53530.0,STARLINK-4482,PAYLOAD,2022-12-17 10:06:26,15.08827481,0.0002201,53.2167,323.571,32.2159,327.8967,-2.2048000000000006e-05,-6.39e-06,0.0,0 STARLINK-4482,1 53530U 22101D   22351.42114512 -.00000639  00000-0 -22048-4 0  9995,2 53530  53.2167 323.5710 0002201  32.2159 327.8967 15.08827481 18285,6917.919,95.438,541.306,538.261,0.0
53530.0,STARLINK-4482,PAYLOAD,2022-12-17 13:17:13,15.08831856,0.000224,53.2169,322.9762,32.8931,327.22,9.066e-06,-1.44e-06,0.0,0 STARLINK-4482,1 53530U 22101D   22351.55362373 -.00000144  00000-0  90660-5 0  9995,2 53530  53.2169 322.9762 0002240  32.8931 327.2200 15.08831856 18302,6917.905,95.438,541.32,538.221,0.0
53530.0,STARLINK-4482,PAYLOAD,2022-12-17 14:52:36,15.08833492,0.0002245,53.2169,322.6790000000001,33.1166,326.9966,2.5544e-05,1.18e-06,0.0,0 STARLINK-4482,1 53530U 22101D   22351.61986323  .00000118  00000-0  25544-4 0  9997,2 53530  53.2169 322.6790 0002245  33.1166 326.9966 15.08833492 18313,6917.9,95.438,541.318,538.212,0.0
53530.0,STARLINK-4482,PAYLOAD,2022-12-18 02:00:17,15.08840266,0.0002147,53.2167,320.5972,34.7553,325.3579,0.00016292,2.306e-05,0.0,0 STARLINK-4482,1 53530U 22101D   22352.08354080  .00002306  00000-0  16292-3 0  9998,2 53530  53.2167 320.5972 0002147  34.7553 325.3579 15.08840266 18385,6917.88,95.438,541.23,538.259,0.0
53530.0,STARLINK-4482,PAYLOAD,2022-12-18 09:57:13,15.08854467,0.0002207,53.2166,319.1106,33.8168,326.2964,0.00043254,6.605e-05,0.0,0 STARLINK-4482,1 53530U 22101D   22352.41473618  .00006605  00000-0  43254-3 0  9998,2 53530  53.2166 319.1106 0002207  33.8168 326.2964 15.08854467 18438,6917.8359999999975,95.437,541.2280000000002,538.174,0.0
53530.0,STARLINK-4482,PAYLOAD,2022-12-18 14:43:23,15.08820202,0.0002232,53.2168,318.2191,42.1789,317.9374,-0.00019417,-3.376e-05,0.0,0 STARLINK-4482,1 53530U 22101D   22352.61347077 -.00003376  00000-0 -19417-3 0  9997,2 53530  53.2168 318.2191 0002232  42.1789 317.9374 15.08820202 18469,6917.941,95.439,541.35,538.262,0.0
53530.0,STARLINK-4482,PAYLOAD,2022-12-19 01:51:05,15.08832714,0.0002083,53.2166,316.1371,33.6094,326.503,7.7713e-05,9.49e-06,0.0,0 STARLINK-4482,1 53530U 22101D   22353.07714882  .00000949  00000-0  77713-4 0  9995,2 53530  53.2166 316.1371 0002083  33.6094 326.5030 15.08832714 18536,6917.903,95.438,541.2090000000002,538.327,0.0
53530.0,STARLINK-4482,PAYLOAD,2022-12-19 09:48:01,15.08847116,0.0001907,53.2162,314.6501,41.824,318.2898,0.00087205,0.00013621,0.0,0 STARLINK-4482,1 53530U 22101D   22353.40834634  .00013621  00000-0  87205-3 0  9997,2 53530  53.2162 314.6501 0001907  41.8240 318.2898 15.08847116 18585,6917.859,95.437,541.043,538.404,0.0
53530.0,STARLINK-4482,PAYLOAD,2022-12-19 17:44:57,15.08848209,0.0002002,53.2158,313.1632,41.76,318.3544,0.0010122,0.00015862,0.0,0 STARLINK-4482,1 53530U 22101D   22353.73954887  .00015862  00000-0  10122-2 0  9998,2 53530  53.2158 313.1632 0002002  41.7600 318.3544 15.08848209 18634,6917.855,95.437,541.105,538.335,0.0
53530.0,STARLINK-4482,PAYLOAD,2022-12-19 19:20:20,15.08849239,0.00019,53.2159,312.8659,42.4704,317.6434,0.0010449,0.00016385,0.0,0 STARLINK-4482,1 53530U 22101D   22353.80578875  .00016385  00000-0  10449-2 0  9998,2 53530  53.2159 312.8659 0001900  42.4704 317.6434 15.08849239 18644,6917.852,95.437,541.0319999999998,538.403,0.0
53530.0,STARLINK-4482,PAYLOAD,2022-12-20 09:38:47,15.0887437,0.0001912,53.2159,310.1893,43.8185,316.2959,0.0013249,0.00020881,0.0,0 STARLINK-4482,1 53530U 22101D   22354.40194012  .00020881  00000-0  13249-2 0  9999,2 53530  53.2159 310.1893 0001912  43.8185 316.2959 15.08874370 18737,6917.775,95.435,540.9630000000002,538.318,0.0
53530.0,STARLINK-4482,PAYLOAD,2022-12-20 14:24:56,15.08846573,9.74e-05,53.2159,309.2978,323.5544,36.5381,-5.0865e-05,-1.097e-05,0.0,0 STARLINK-4482,1 53530U 22101D   22354.60065841 -.00001097  00000-0 -50865-4 0  9995,2 53530  53.2159 309.2978 0000974 323.5544  36.5381 15.08846573 18762,6917.86,95.437,540.399,539.0509999999998,0.0
53530.0,STARLINK-4482,PAYLOAD,2022-12-21 01:32:40,15.08828642,0.0001634,53.2158,307.2163,53.3858,306.7284,0.0010004,0.00015664,0.0,0 STARLINK-4482,1 53530U 22101D   22355.06435316  .00015664  00000-0  10004-2 0  9996,2 53530  53.2158 307.2163 0001634  53.3858 306.7284 15.08828642 18834,6917.915,95.438,540.91,538.65,0.0
53530.0,STARLINK-4482,PAYLOAD,2022-12-21 04:43:26,15.0883283,0.0001683,53.2158,306.6218,53.4424,306.6723,0.0014759,0.00023274,0.0,0 STARLINK-4482,1 53530U 22101D   22355.19683433  .00023274  00000-0  14759-2 0  9992,2 53530  53.2158 306.6218 0001683  53.4424 306.6723 15.08832830 18855,6917.901999999999,95.438,540.932,538.6030000000002,0.0
53530.0,STARLINK-4482,PAYLOAD,2022-12-22 02:58:49,15.08864354,0.0001669,53.2163,302.4573,55.1877,304.9272,0.0012126,0.00019076,0.0,0 STARLINK-4482,1 53530U 22101D   22356.12418901  .00019076  00000-0  12126-2 0  9993,2 53530  53.2163 302.4573 0001669  55.1877 304.9272 15.08864354 18995,6917.806,95.436,540.826,538.516,0.0
53530.0,STARLINK-4482,PAYLOAD,2022-12-22 14:06:31,15.08850437,0.0001653,53.2165,300.3759,56.5873,303.5277,0.00039035,5.932e-05,0.0,0 STARLINK-4482,1 53530U 22101D   22356.58786926  .00005932  00000-0  39035-3 0  9993,2 53530  53.2165 300.3759 0001653  56.5873 303.5277 15.08850437 19060,6917.848000000001,95.437,540.857,538.57,0.0
53530.0,STARLINK-4482,PAYLOAD,2022-12-23 02:49:37,15.08838371,0.0001683,53.2168,297.9989,32.9978,327.1119,4.3217e-05,4e-06,0.0,0 STARLINK-4482,1 53530U 22101D   22357.11778975  .00000400  00000-0  43217-4 0  9991,2 53530  53.2168 297.9989 0001683  32.9978 327.1119 15.08838371 19145,6917.885,95.438,540.915,538.586,0.0
53530.0,STARLINK-4482,PAYLOAD,2022-12-23 06:00:23,15.08835024,0.0001656,53.2166,297.4038,35.6602,324.4501,4.4964e-05,4.28e-06,0.0,0 STARLINK-4482,1 53530U 22101D   22357.25027120  .00000428  00000-0  44964-4 0  9995,2 53530  53.2166 297.4038 0001656  35.6602 324.4501 15.08835024 19166,6917.896,95.438,540.906,538.615,0.0
53530.0,STARLINK-4482,PAYLOAD,2022-12-24 02:40:23,15.08857183,0.0001617,53.2167,293.5371,44.0258,316.0863,0.00072613,0.00011293,0.0,0 STARLINK-4482,1 53530U 22101D   22358.11138806  .00011293  00000-0  72613-3 0  9998,2 53530  53.2167 293.5371 0001617  44.0258 316.0863 15.08857183 19294,6917.828,95.436,540.811,538.5740000000002,0.0
53530.0,STARLINK-4482,PAYLOAD,2022-12-25 02:31:10,15.088494199999998,0.0001691,53.217,289.0782,51.6232,308.4912,0.00013558,1.871e-05,0.0,0 STARLINK-4482,1 53530U 22101D   22359.10498423  .00001871  00000-0  13558-3 0  9996,2 53530  53.2170 289.0782 0001691  51.6232 308.4912 15.08849420 19444,6917.852,95.437,540.886,538.547,0.0
53530.0,STARLINK-4482,PAYLOAD,2022-12-25 12:03:29,15.08840902,0.0001702,53.2164,287.2935,51.9782,308.1364,-3.002e-05,-7.66e-06,0.0,0 STARLINK-4482,1 53530U 22101D   22359.50242682 -.00000766  00000-0 -30020-4 0  9992,2 53530  53.2164 287.2935 0001702  51.9782 308.1364 15.08840902 19504,6917.878000000002,95.437,540.92,538.565,0.0
53530.0,STARLINK-4482,PAYLOAD,2022-12-25 20:00:25,15.08830896,0.0001814,53.2164,285.8074,53.215,306.9008,-0.00026486,-4.5e-05,0.0,0 STARLINK-4482,1 53530U 22101D   22359.83362940 -.00004500  00000-0 -26486-3 0  9998,2 53530  53.2164 285.8074 0001814  53.2150 306.9008 15.08830896 19557,6917.908,95.438,541.028,538.518,0.0
53530.0,STARLINK-4482,PAYLOAD,2022-12-26 02:21:58,15.0883052,0.0001748,53.2164,284.6178,53.3109,306.8043,-0.00020768,-3.591e-05,0.0,0 STARLINK-4482,1 53530U 22101D   22360.09859435 -.00003591  00000-0 -20768-3 0  9994,2 53530  53.2164 284.6178 0001748  53.3109 306.8043 15.08830520 19596,6917.909000000002,95.438,540.984,538.565,0.0
